IRIDIUM 8 [+]           
1 24792U 97020A   16304.83781187  .00000203  00000-0  65286-4 0  9995
2 24792  86.3985  54.5690 0002181  97.7663 262.3780 14.34221572 20094
IRIDIUM 7 [+]           
1 24793U 97020B   16304.90124628  .00000193  00000-0  62010-4 0  9995
2 24793  86.3989  54.8126 0002129  97.6672 262.4766 14.34219932 20101
IRIDIUM 6 [+]           
1 24794U 97020C   16304.89481014  .00000202  00000-0  64907-4 0  9997
2 24794  86.3987  54.7512 0002119  95.9381 264.2056 14.34218801 20099
IRIDIUM 5 [+]           
1 24795U 97020D   16304.81881339  .00000227  00000-0  74079-4 0  9992
2 24795  86.3990  54.7999 0001973  97.2501 262.8919 14.34219473 20367
IRIDIUM 4 [-]           
1 24796U 97020E   16304.90728598  .00000179  00000-0  55837-4 0  9997
2 24796  86.3982  53.8487 0002203  95.3656  43.5484 14.35115479 20383
IRIDIUM 914 [-]         
1 24836U 97030A   16304.88869409  .00000138  00000-0  38528-4 0  9990
2 24836  86.3940  71.2298 0003408 115.0448 245.1104 14.38716559153872
IRIDIUM 12 [+]          
1 24837U 97030B   16304.92635014  .00000028  00000-0  29884-5 0  9993
2 24837  86.3943  85.9423 0002036  95.5479  16.6111 14.34215832 13801
IRIDIUM 10 [+]          
1 24839U 97030D   16304.91352051  .00000038  00000-0  63555-5 0  9995
2 24839  86.3943  85.9287 0002069  96.2439  15.1557 14.34214763 14071
IRIDIUM 13 [+]          
1 24840U 97030E   16304.91094637  .00000035  00000-0  54818-5 0  9999
2 24840  86.3945  86.0652 0001942  99.3806 260.7609 14.34214315 14084
IRIDIUM 16 [-]          
1 24841U 97030F   16304.84833986  .00000124  00000-0  35572-4 0  9994
2 24841  86.4022  86.0715 0001616  19.1427 340.9830 14.36667702 14394
IRIDIUM 911 [-]         
1 24842U 97030G   16304.88660067  .00000197  00000-0  50786-4 0  9991
2 24842  86.4448  86.9758 0016223 127.8601 232.4071 14.44903284 19848
IRIDIUM 15 [+]          
1 24869U 97034A   16304.88255527  .00000006  00000-0 -50398-5 0  9995
2 24869  86.3928 117.9861 0001991  79.6375 280.5045 14.34217059 10772
IRIDIUM 17 [-]          
1 24870U 97034B   16304.94353719  .00000164  00000-0  50129-4 0  9991
2 24870  86.3932 116.2547 0000856 150.4017 209.7228 14.35713483 11288
IRIDIUM 920 [-]         
1 24871U 97034C   16304.90396575  .00000146  00000-0  40464-4 0  9996
2 24871  86.3947 103.0017 0012431  24.6725 335.5066 14.39435093 13104
IRIDIUM 18 [+]          
1 24872U 97034D   16304.58445282  .00000000  00000-0 -69966-5 0  9990
2 24872  86.3935 118.0693 0001926  82.9680 277.1735 14.34217085 10961
IRIDIUM 921 [-]         
1 24873U 97034E   16304.72097081  .00002172  00000-0  12835-3 0  9999
2 24873  86.3965 174.3971 0009491 129.9153 230.2921 15.10893191 53160
IRIDIUM 26 [-]          
1 24903U 97043A   16304.74077443  .00000198  00000-0  62344-4 0  9992
2 24903  86.3980 350.8813 0002160  88.8502  49.7205 14.35218200  4582
IRIDIUM 25 [+]          
1 24904U 97043B   16304.88156204  .00000175  00000-0  55455-4 0  9991
2 24904  86.3973 351.3162 0002224  90.5238 269.6212 14.34218747  4750
IRIDIUM 46 [+]          
1 24905U 97043C   16304.75470726  .00000105  00000-0  30512-4 0  9996
2 24905  86.3982 351.9024 0002294  92.0670 268.0789 14.34218393  4948
IRIDIUM 23 [+]          
1 24906U 97043D   16304.77478949  .00000127  00000-0  38111-4 0  9991
2 24906  86.3988 351.3745 0002343  91.5358  44.8920 14.34221496  4676
IRIDIUM 22 [+]          
1 24907U 97043E   16304.65323049  .00000144  00000-0  44516-4 0  9994
2 24907  86.3985 352.0536 0002239  93.0441 267.1011 14.34218739  4941
DUMMY MASS 1 [-]        
1 24925U 97048A   16304.68881338  .00000134  00000-0  12326-4 0  9995
2 24925  86.3348 149.2433 0008910 123.1499 237.0581 14.85104893 37288
DUMMY MASS 2 [-]        
1 24926U 97048B   16304.69150276  .00000129  00000-0  11885-4 0  9990
2 24926  86.3350 150.3196 0009516 130.0742 230.1318 14.84873224 37374
IRIDIUM 29 [-]          
1 24944U 97051A   16304.77692887  .00000122  00000-0  36048-4 0  9993
2 24944  86.4002  22.8492 0002363 101.2655 258.8807 14.34606530  1322
IRIDIUM 32 [+]          
1 24945U 97051B   16304.75189244  .00000237  00000-0  77550-4 0  9990
2 24945  86.4001  23.0281 0002294  96.4201 263.7257 14.34227964  1533
IRIDIUM 33 [-]          
1 24946U 97051C   16304.81526342  .00000132  00000-0  40531-4 0  9995
2 24946  86.3917  22.7492 0005746 269.7266  90.3271 14.33519598  1165
IRIDIUM 28 [-]          
1 24948U 97051E   16304.79921942  .00000179  00000-0  55301-4 0  9991
2 24948  86.4007  22.2037 0001950  87.5431 272.5989 14.35512459  1601
IRIDIUM 30 [+]          
1 24949U 97051F   16304.81531742  .00000044  00000-0  86874-5 0  9991
2 24949  86.4022  23.1012 0001800  88.4112 271.7290 14.34221069  1319
IRIDIUM 31 [+]          
1 24950U 97051G   16304.73920252  .00000249  00000-0  81686-4 0  9994
2 24950  86.4002  23.1253 0002247 100.0896 260.0554 14.34223187  1601
IRIDIUM 19 [+]          
1 24965U 97056A   16304.79344180  .00000208  00000-0  67154-4 0  9990
2 24965  86.3985  54.5972 0002142  97.8850 262.2589 14.34220344999676
IRIDIUM 35 [+]          
1 24966U 97056B   16304.87588778  .00000206  00000-0  66334-4 0  9990
2 24966  86.3985  54.5584 0002152  97.2721 262.8719 14.34221688999378
IRIDIUM 36 [-]          
1 24967U 97056C   16304.74274908  .00000146  00000-0  44007-4 0  9990
2 24967  86.3996  53.8521 0002093  98.1819 261.9615 14.35563780999936
IRIDIUM 37 [+]          
1 24968U 97056D   16304.85052350  .00000205  00000-0  66084-4 0  9993
2 24968  86.3987  54.7489 0002165  98.4103 261.7338 14.34221206999448
IRIDIUM 34 [+]          
1 24969U 97056E   16304.86952613  .00000206  00000-0  66658-4 0  9994
2 24969  86.3985  54.6773 0002068  98.7215 261.4216 14.34220386999665
IRIDIUM 43 [+]          
1 25039U 97069A   16304.85719648 -.00000103  00000-0 -43724-4 0  9992
2 25039  86.3931 117.8837 0001852  91.5808 268.5600 14.34213333993446
IRIDIUM 41 [+]          
1 25040U 97069B   16304.85083964 -.00000008  00000-0 -99823-5 0  9995
2 25040  86.3934 117.8418 0001941  81.9682 278.1734 14.34216685993154
IRIDIUM 40 [+]          
1 25041U 97069C   16304.87640088 -.00000122  00000-0 -50551-4 0  9995
2 25041  86.3927 118.0556 0001877 118.7344 241.4040 14.34209998993461
IRIDIUM 39 [B]          
1 25042U 97069D   16304.91429193  .00000199  00000-0  49863-4 0  9999
2 25042  86.3890 117.0465 0018918   1.9255 358.2017 14.46101108993319
IRIDIUM 38 [-]          
1 25043U 97069E   16304.89890793  .00000161  00000-0  48671-4 0  9990
2 25043  86.3931 115.2815 0001444  54.5556 305.5775 14.35985920993551
IRIDIUM 42 [-]          
1 25077U 97077A   16304.90909089  .00000140  00000-0  42666-4 0  9992
2 25077  86.3934 117.8055 0001986  86.9327 273.2096 14.34511203989326
IRIDIUM 44 [-]          
1 25078U 97077B   16304.94802955  .00000139  00000-0  39312-4 0  9993
2 25078  86.3931 107.9275 0001098  39.4078 320.7200 14.38071829990672
IRIDIUM 45 [+]          
1 25104U 97082A   16304.66308641  .00000270  00000-0  89355-4 0  9999
2 25104  86.4000  23.1945 0001826  64.9541 295.1845 14.34230280987209
IRIDIUM 24 [-]          
1 25105U 97082B   16304.63530775  .00000158  00000-0  44004-4 0  9999
2 25105  86.3920 332.4099 0012556  30.7150 329.4782 14.39814466989566
IRIDIUM 47 [+]          
1 25106U 97082C   16304.69128676  .00000189  00000-0  60476-4 0  9994
2 25106  86.3971 351.2742 0002374  90.8663 269.2804 14.34224149987203
IRIDIUM 49 [+]          
1 25108U 97082E   16304.73101600  .00000039  00000-0  69332-5 0  9994
2 25108  86.3974 351.3542 0002274  90.9620  48.7180 14.34218545987211
IRIDIUM 52 [+]          
1 25169U 98010A   16304.94265345  .00000028  00000-0  29831-5 0  9991
2 25169  86.3948  86.2212 0002029  95.9766 264.1661 14.34215685978648
IRIDIUM 56 [+]          
1 25170U 98010B   16304.86654491 -.00000042  00000-0 -22034-4 0  9993
2 25170  86.3938  86.3501 0001973  83.9044 276.2376 14.34209207978835
IRIDIUM 54 [+]          
1 25171U 98010C   16304.89826694  .00000015  00000-0 -18090-5 0  9990
2 25171  86.3948  86.2595 0002030  96.4689 263.6738 14.34214060979070
IRIDIUM 50 [+]          
1 25172U 98010D   16304.93000251  .00000035  00000-0  52653-5 0  9993
2 25172  86.3948  86.2036 0002127  97.3338 262.8099 14.34214920978625
IRIDIUM 53 [+]          
1 25173U 98010E   16304.87925337  .00000029  00000-0  33006-5 0  9992
2 25173  86.3948  86.2305 0002040  96.5861 263.5567 14.34215255978621
IRIDIUM 51 [S]          
1 25262U 98018A   16304.89492534  .00000261  00000-0  86152-4 0  9996
2 25262  86.4001  54.8492 0002316  97.2576 262.8883 14.34222085978066
IRIDIUM 61 [+]          
1 25263U 98018B   16304.85685834  .00000199  00000-0  64131-4 0  9993
2 25263  86.3986  54.7116 0002157  96.6018 263.5423 14.34220575973770
IRIDIUM 55 [+]          
1 25272U 98019A   16304.78995142  .00000230  00000-0  75183-4 0  9997
2 25272  86.4000  22.9222 0002270  95.7207 264.4247 14.34223363972961
IRIDIUM 57 [-]          
1 25273U 98019B   16304.83293570  .00000117  00000-0  34722-4 0  9998
2 25273  86.4006  23.2019 0002281  95.6975 264.4481 14.34242115972987
IRIDIUM 58 [+]          
1 25274U 98019C   16304.84068869  .00000237  00000-0  77691-4 0  9996
2 25274  86.4007  23.3891 0002319  94.0512 266.0949 14.34222874972987
IRIDIUM 59 [+]          
1 25275U 98019D   16304.77725371  .00000106  00000-0  30754-4 0  9991
2 25275  86.4001  23.2810 0002340  97.9970 262.1491 14.34219441973252
IRIDIUM 60 [+]          
1 25276U 98019E   16304.78360460  .00000244  00000-0  79901-4 0  9997
2 25276  86.3999  22.9071 0002235  95.4251 264.7200 14.34222944972977
IRIDIUM 62 [+]          
1 25285U 98021A   16304.60540214  .00000026  00000-0  21209-5 0  9995
2 25285  86.3934 319.8946 0002294  88.8281 271.3178 14.34217622972110
IRIDIUM 63 [-]          
1 25286U 98021B   16304.96649759  .00000138  00000-0  41820-4 0  9993
2 25286  86.3963 320.1383 0002368  94.7061 326.2510 14.34621968971905
